NORAD_CAT_ID,OBJECT_NAME,OBJECT_TYPE,EPOCH,MEAN_MOTION,ECCENTRICITY,INCLINATION,RA_OF_ASC_NODE,ARG_OF_PERICENTER,MEAN_ANOMALY,BSTAR,MEAN_MOTION_DOT,MEAN_MOTION_DDOT,TLE_LINE0,TLE_LINE1,TLE_LINE2,SEMIMAJOR_AXIS,PERIOD,APOGEE,PERIGEE,DECAYED
51855.0,STARLINK-3545,PAYLOAD,2024-02-12 12:07:23,15.08840768,0.0001724,53.2188,173.691,103.7974,256.321,9.1119e-05,1.162e-05,0.0,0 STARLINK-3545,1 51855U 22022D   24043.50513544  .00001162  00000-0  91119-4 0  9997,2 51855  53.2188 173.6910 0001724 103.7974 256.3210 15.08840768108819,6917.878,95.438,540.936,538.55,0.0
51855.0,STARLINK-3545,PAYLOAD,2024-02-12 13:42:46,15.08840827,0.0001693,53.2185,173.3935,103.0771,257.041,9.015e-05,1.147e-05,0.0,0 STARLINK-3545,1 51855U 22022D   24043.57137554  .00001147  00000-0  90150-4 0  9994,2 51855  53.2185 173.3935 0001693 103.0771 257.0410 15.08840827108820,6917.878,95.438,540.914,538.572,0.0
51855.0,STARLINK-3545,PAYLOAD,2024-02-13 11:58:11,15.08835749,0.0001745,53.2191,169.2295,112.5751,247.5426,-4.3598e-05,-9.82e-06,0.0,0 STARLINK-3545,1 51855U 22022D   24044.49874427 -.00000982  00000-0 -43598-4 0  9995,2 51855  53.2191 169.2295 0001745 112.5751 247.5426 15.08835749108964,6917.893,95.438,540.966,538.551,0.0
51855.0,STARLINK-3545,PAYLOAD,2024-02-13 15:08:57,15.08846544,0.0001662,53.219,168.6383,104.8875,255.2301,-7.1772e-05,-1.43e-05,0.0,0 STARLINK-3545,1 51855U 22022D   24044.63121893 -.00001430  00000-0 -71772-4 0  9997,2 51855  53.2190 168.6383 0001662 104.8875 255.2301 15.08846544108988,6917.86,95.437,540.875,538.576,0.0
51855.0,STARLINK-3545,PAYLOAD,2024-02-14 14:59:44,15.08845986,0.0001618,53.2188,164.1789,99.8195,260.298,0.00014254,1.982e-05,0.0,0 STARLINK-3545,1 51855U 22022D   24045.62481484  .00001982  00000-0  14254-3 0  9993,2 51855  53.2188 164.1789 0001618  99.8195 260.2980 15.08845986109131,6917.862,95.437,540.846,538.608,0.0
51855.0,STARLINK-3545,PAYLOAD,2024-02-15 00:32:03,15.08832276,0.0001548,53.2179,162.3925,101.6797,258.4369,0.00010063,1.314e-05,0.0,0 STARLINK-3545,1 51855U 22022D   24046.02226600  .00001314  00000-0  10063-3 0  9998,2 51855  53.2179 162.3925 0001548 101.6797 258.4369 15.08832276109199,6917.904,95.438,540.84,538.698,0.0
51855.0,STARLINK-3545,PAYLOAD,2024-02-15 13:15:09,15.08832225,0.0001782,53.2188,160.0141,104.2988,255.8202,4.9761e-06,-2.09e-06,0.0,0 STARLINK-3545,1 51855U 22022D   24046.55219256 -.00000209  00000-0  49761-5 0  9997,2 51855  53.2188 160.0141 0001782 104.2988 255.8202 15.08832225109275,6917.904,95.438,541.002,538.536,0.0
51855.0,STARLINK-3545,PAYLOAD,2024-02-16 11:30:32,15.08842415,0.00016,53.2172,155.8474,82.3647,277.7527,0.00017749,2.538e-05,0.0,0 STARLINK-3545,1 51855U 22022D   24047.47954289  .00002538  00000-0  17749-3 0  9996,2 51855  53.2172 155.8474 0001600  82.3647 277.7527 15.08842415109417,6917.873,95.437,540.845,538.631,0.0
51855.0,STARLINK-3545,PAYLOAD,2024-02-16 14:41:18,15.0885076,0.0001571,53.217,155.2531,90.3305,269.7867,9.7196e-05,1.26e-05,0.0,0 STARLINK-3545,1 51855U 22022D   24047.61201932  .00001260  00000-0  97196-4 0  9998,2 51855  53.2170 155.2531 0001571  90.3305 269.7867 15.08850760109432,6917.848,95.437,540.799,538.626,0.0
51855.0,STARLINK-3545,PAYLOAD,2024-02-17 11:21:20,15.08830241,0.0002111,53.2191,151.3891,92.3008,267.8225,0.00011493,1.541e-05,0.0,0 STARLINK-3545,1 51855U 22022D   24048.47315595  .00001541  00000-0  11493-3 0  9991,2 51855  53.2191 151.3891 0002111  92.3008 267.8225 15.08830241109567,6917.91,95.438,541.236,538.315,0.0
51855.0,STARLINK-3545,PAYLOAD,2024-02-17 14:32:06,15.08834044,0.0001544,53.2177,150.7945,91.834,268.2829,7.9586e-05,9.79e-06,0.0,0 STARLINK-3545,1 51855U 22022D   24048.60563378  .00000979  00000-0  79586-4 0  9992,2 51855  53.2177 150.7945 0001544  91.8340 268.2829 15.08834044109588,6917.899,95.438,540.832,538.695,0.0
51855.0,STARLINK-3545,PAYLOAD,2024-02-18 12:47:30,15.08838012,0.0001384,53.2148,146.6274,87.9657,272.1493,0.00011096,1.478e-05,0.0,0 STARLINK-3545,1 51855U 22022D   24049.53299304  .00001478  00000-0  11096-3 0  9996,2 51855  53.2148 146.6274 0001384  87.9657 272.1493 15.08838012109720,6917.886,95.438,540.709,538.794,0.0
51855.0,STARLINK-3545,PAYLOAD,2024-02-19 12:38:17,15.08856285,0.000132,53.2152,142.1682,90.8833,269.231,0.0004631,7.093e-05,0.0,0 STARLINK-3545,1 51855U 22022D   24050.52658569  .00007093  00000-0  46310-3 0  9995,2 51855  53.2152 142.1682 0001320  90.8833 269.2310 15.08856285109871,6917.831,95.437,540.609,538.782,0.0
51855.0,STARLINK-3545,PAYLOAD,2024-02-20 12:29:04,15.08834563,0.0001196,53.2169,137.7094,94.668,265.4449,5.2404e-05,5.46e-06,0.0,0 STARLINK-3545,1 51855U 22022D   24051.52019420  .00000546  00000-0  52404-4 0  9991,2 51855  53.2169 137.7094 0001196  94.6680 265.4449 15.08834563110024,6917.897,95.438,540.589,538.935,0.0
51855.0,STARLINK-3545,PAYLOAD,2024-02-21 12:19:51,15.08846801,0.0001338,53.216,133.2502,99.1675,260.9468,7.2281e-05,8.63e-06,0.0,0 STARLINK-3545,1 51855U 22022D   24052.51378751  .00000863  00000-0  72281-4 0  9993,2 51855  53.2160 133.2502 0001338  99.1675 260.9468 15.08846801110177,6917.86,95.437,540.65,538.799,0.0
51855.0,STARLINK-3545,PAYLOAD,2024-02-21 21:52:10,15.08847461,0.0001263,53.2166,131.4648,90.6629,269.4508,-0.00012046,-2.205e-05,0.0,0 STARLINK-3545,1 51855U 22022D   24052.91122811 -.00002205  00000-0 -12046-3 0  9997,2 51855  53.2166 131.4648 0001263  90.6629 269.4508 15.08847461110235,6917.858,95.437,540.596,538.849,0.0
51855.0,STARLINK-3545,PAYLOAD,2024-02-22 10:35:15,15.08831879,0.0001348,53.2171,129.0886,106.3073,253.8068,9.5318e-05,1.229e-05,0.0,0 STARLINK-3545,1 51855U 22022D   24053.44115604  .00001229  00000-0  95318-4 0  9995,2 51855  53.2171 129.0886 0001348 106.3073 253.8068 15.08831879110313,6917.905,95.438,540.703,538.838,0.0
51855.0,STARLINK-3545,PAYLOAD,2024-02-23 12:01:25,15.08846829,0.0001455,53.2174,124.3291,103.0929,257.0225,6.1004e-05,6.83e-06,0.0,0 STARLINK-3545,1 51855U 22022D   24054.50098916  .00000683  00000-0  61004-4 0  9997,2 51855  53.2174 124.3291 0001455 103.0929 257.0225 15.08846829110476,6917.86,95.437,540.731,538.718,0.0
51855.0,STARLINK-3545,PAYLOAD,2024-02-23 13:36:48,15.08847736,0.0001485,53.2175,124.0319,106.6319,253.4836,9.1025e-05,1.161e-05,0.0,0 STARLINK-3545,1 51855U 22022D   24054.56722813  .00001161  00000-0  91025-4 0  9991,2 51855  53.2175 124.0319 0001485 106.6319 253.4836 15.08847736110487,6917.857,95.437,540.749,538.694,0.0
51855.0,STARLINK-3545,PAYLOAD,2024-02-23 21:33:44,15.0883806,0.000156,53.2168,122.5423,87.7045,272.4126,6.0897e-05,6.81e-06,0.0,0 STARLINK-3545,1 51855U 22022D   24054.89843511  .00000681  00000-0  60897-4 0  9995,2 51855  53.2168 122.5423 0001560  87.7045 272.4126 15.08838060110536,6917.886,95.438,540.831,538.672,0.0
51855.0,STARLINK-3545,PAYLOAD,2024-02-24 03:55:17,15.08835925,0.000167,53.2173,121.3544,96.2345,263.8837,9.5781e-05,1.236e-05,0.0,0 STARLINK-3545,1 51855U 22022D   24055.16339708  .00001236  00000-0  95781-4 0  9991,2 51855  53.2173 121.3544 0001670  96.2345 263.8837 15.08835925110577,6917.893,95.438,540.913,538.603,0.0
51855.0,STARLINK-3545,PAYLOAD,2024-02-24 11:52:13,15.08840067,0.0001572,53.2168,119.8673,94.1394,265.9778,7.9602e-05,9.79e-06,0.0,0 STARLINK-3545,1 51855U 22022D   24055.49459604  .00000979  00000-0  79602-4 0  9992,2 51855  53.2168 119.8673 0001572  94.1394 265.9778 15.08840067110624,6917.88,95.438,540.833,538.658,0.0
51855.0,STARLINK-3545,PAYLOAD,2024-02-25 10:07:36,15.08848675,0.0001486,53.2159,115.7042,84.5773,275.5388,9.884e-05,1.286e-05,0.0,0 STARLINK-3545,1 51855U 22022D   24056.42194938  .00001286  00000-0  98840-4 0  9999,2 51855  53.2159 115.7042 0001486  84.5773 275.5388 15.08848675110769,6917.854,95.437,540.747,538.691,0.0
51855.0,STARLINK-3545,PAYLOAD,2024-02-25 13:18:22,15.08855284,0.0001479,53.2152,115.1082,86.0752,274.0409,0.00014668,2.048e-05,0.0,0 STARLINK-3545,1 51855U 22022D   24056.55442347  .00002048  00000-0  14668-3 0  9995,2 51855  53.2152 115.1082 0001479  86.0752 274.0409 15.08855284110780,6917.834,95.437,540.722,538.676,0.0
51855.0,STARLINK-3545,PAYLOAD,2024-02-25 21:15:18,15.08846116,0.0001386,53.2171,113.6217,79.8353,280.2795,2.8802e-05,1.71e-06,0.0,0 STARLINK-3545,1 51855U 22022D   24056.88563038  .00000171  00000-0  28802-4 0  9993,2 51855  53.2171 113.6217 0001386  79.8353 280.2795 15.08846116110835,6917.862,95.437,540.686,538.768,0.0
51855.0,STARLINK-3545,PAYLOAD,2024-02-26 03:36:51,15.08839705,0.0001882,53.2161,112.4332,78.5322,281.5881,0.00011278,1.507e-05,0.0,0 STARLINK-3545,1 51855U 22022D   24057.15059557  .00001507  00000-0  11278-3 0  9992,2 51855  53.2161 112.4332 0001882  78.5322 281.5881 15.08839705110872,6917.881,95.438,541.048,538.444,0.0
51855.0,STARLINK-3545,PAYLOAD,2024-02-26 09:58:23,15.08842738,0.0001885,53.2158,111.2438,79.1528,280.9676,0.00010595,1.399e-05,0.0,0 STARLINK-3545,1 51855U 22022D   24057.41555414  .00001399  00000-0  10595-3 0  9994,2 51855  53.2158 111.2438 0001885  79.1528 280.9676 15.08842738110910,6917.872,95.437,541.041,538.433,0.0
51855.0,STARLINK-3545,PAYLOAD,2024-02-27 09:49:11,15.08840352,0.0001537,53.217,106.7822,87.0595,273.0573,-2.5666e-06,-3.29e-06,0.0,0 STARLINK-3545,1 51855U 22022D   24058.40915701 -.00000329  00000-0 -25666-5 0  9994,2 51855  53.2170 106.7822 0001537  87.0595 273.0573 15.08840352111062,6917.879,95.438,540.808,538.681,0.0
51855.0,STARLINK-3545,PAYLOAD,2024-02-28 03:18:26,15.08819855,0.0001629,53.2184,103.5135,82.2733,277.8444,0.0003403,5.129e-05,0.0,0 STARLINK-3545,1 51855U 22022D   24059.13780323  .00005129  00000-0  34030-3 0  9999,2 51855  53.2184 103.5135 0001629  82.2733 277.8444 15.08819855111177,6917.942,95.439,540.934,538.68,0.0
51855.0,STARLINK-3545,PAYLOAD,2024-02-28 09:39:57,15.08841682,0.0001646,53.2172,102.3212,87.4131,272.7049,9.7838e-05,1.269e-05,0.0,0 STARLINK-3545,1 51855U 22022D   24059.40275445  .00001269  00000-0  97838-4 0  9990,2 51855  53.2172 102.3212 0001646  87.4131 272.7049 15.08841682111218,6917.875,95.437,540.879,538.602,0.0
